[{"OBJECT_NAME":"OBJECT A","OBJECT_ID":"2023-085A","EPOCH":"2026-03-09T21:42:39.504096","MEAN_MOTION":15.28003151,"ECCENTRICITY":0.00073195,"INCLINATION":97.4858,"RA_OF_ASC_NODE":178.2033,"ARG_OF_PERICENTER":32.2499,"MEAN_ANOMALY":327.9186,"EPHEMERIS_TYPE":0,"CLASSIFICATION_TYPE":"U","NORAD_CAT_ID":57004,"ELEMENT_SET_NO":999,"REV_AT_EPOCH":15139,"BSTAR":0.00063583858,"MEAN_MOTION_DOT":0.0001733,"MEAN_MOTION_DDOT":0},{"OBJECT_NAME":"STARLINK-30873","OBJECT_ID":"2023-171V","EPOCH":"2026-03-09T22:00:01.999584","MEAN_MOTION":15.26671592,"ECCENTRICITY":0.00011318,"INCLINATION":42.9997,"RA_OF_ASC_NODE":283.5385,"ARG_OF_PERICENTER":303.4192,"MEAN_ANOMALY":66.6377,"EPHEMERIS_TYPE":0,"CLASSIFICATION_TYPE":"U","NORAD_CAT_ID":58249,"ELEMENT_SET_NO":999,"REV_AT_EPOCH":577,"BSTAR":0.0023010917,"MEAN_MOTION_DOT":0.00061854,"MEAN_MOTION_DDOT":0}]
